[{"OBJECT_NAME":"KUIPER-00159","OBJECT_ID":"2026-030A","EPOCH":"2026-03-05T14:20:23.689824","MEAN_MOTION":15.35556565,"ECCENTRICITY":0.00046489,"INCLINATION":51.8846,"RA_OF_ASC_NODE":238.8981,"ARG_OF_PERICENTER":34.5972,"MEAN_ANOMALY":325.5316,"EPHEMERIS_TYPE":0,"CLASSIFICATION_TYPE":"U","NORAD_CAT_ID":67764,"ELEMENT_SET_NO":999,"REV_AT_EPOCH":446,"BSTAR":0.00074089571,"MEAN_MOTION_DOT":0.0002571,"MEAN_MOTION_DDOT":0},{"OBJECT_NAME":"KUIPER-00160","OBJECT_ID":"2026-030B","EPOCH":"2026-03-05T14:22:09.231744","MEAN_MOTION":15.35398264,"ECCENTRICITY":0.00050858,"INCLINATION":51.8813,"RA_OF_ASC_NODE":238.8984,"ARG_OF_PERICENTER":43.7019,"MEAN_ANOMALY":316.4369,"EPHEMERIS_TYPE":0,"CLASSIFICATION_TYPE":"U","NORAD_CAT_ID":67765,"ELEMENT_SET_NO":999,"REV_AT_EPOCH":446,"BSTAR":0.0012133443,"MEAN_MOTION_DOT":0.0004223,"MEAN_MOTION_DDOT":0},{"OBJECT_NAME":"KUIPER-00177","OBJECT_ID":"2026-030C","EPOCH":"2026-03-05T14:04:24.926304","MEAN_MOTION":15.3634407,"ECCENTRICITY":0.00010928,"INCLINATION":51.8827,"RA_OF_ASC_NODE":238.8239,"ARG_OF_PERICENTER":16.6199,"MEAN_ANOMALY":343.4823,"EPHEMERIS_TYPE":0,"CLASSIFICATION_TYPE":"U","NORAD_CAT_ID":67766,"ELEMENT_SET_NO":999,"REV_AT_EPOCH":446,"BSTAR":0.00094458171,"MEAN_MOTION_DOT":0.0003376,"MEAN_MOTION_DDOT":0},{"OBJECT_NAME":"KUIPER-00178","OBJECT_ID":"2026-030D","EPOCH":"2026-03-05T14:24:37.669536","MEAN_MOTION":15.35348062,"ECCENTRICITY":0.00061524,"INCLINATION":51.8836,"RA_OF_ASC_NODE":238.9144,"ARG_OF_PERICENTER":34.5887,"MEAN_ANOMALY":325.5498,"EPHEMERIS_TYPE":0,"CLASSIFICATION_TYPE":"U","NORAD_CAT_ID":67767,"ELEMENT_SET_NO":999,"REV_AT_EPOCH":446,"BSTAR":0.00074484701,"MEAN_MOTION_DOT":0.00025681,"MEAN_MOTION_DDOT":0},{"OBJECT_NAME":"KUIPER-00180","OBJECT_ID":"2026-030E","EPOCH":"2026-03-05T13:35:16.865952","MEAN_MOTION":15.32152762,"ECCENTRICITY":0.00147516,"INCLINATION":51.8802,"RA_OF_ASC_NODE":239.4193,"ARG_OF_PERICENTER":57.7021,"MEAN_ANOMALY":302.5391,"EPHEMERIS_TYPE":0,"CLASSIFICATION_TYPE":"U","NORAD_CAT_ID":67768,"ELEMENT_SET_NO":999,"REV_AT_EPOCH":445,"BSTAR":0.00090433391,"MEAN_MOTION_DOT":0.00028315,"MEAN_MOTION_DDOT":0},{"OBJECT_NAME":"KUIPER-00197","OBJECT_ID":"2026-030F","EPOCH":"2026-03-05T14:07:31.632384","MEAN_MOTION":15.36217152,"ECCENTRICITY":0.00014113,"INCLINATION":51.8829,"RA_OF_ASC_NODE":238.8387,"ARG_OF_PERICENTER":51.5362,"MEAN_ANOMALY":308.575,"EPHEMERIS_TYPE":0,"CLASSIFICATION_TYPE":"U","NORAD_CAT_ID":67769,"ELEMENT_SET_NO":999,"REV_AT_EPOCH":446,"BSTAR":0.00098567225,"MEAN_MOTION_DOT":0.00035108,"MEAN_MOTION_DDOT":0},{"OBJECT_NAME":"KUIPER-00198","OBJECT_ID":"2026-030G","EPOCH":"2026-03-05T14:14:35.623968","MEAN_MOTION":15.35861436,"ECCENTRICITY":0.00031535,"INCLINATION":51.8809,"RA_OF_ASC_NODE":238.8647,"ARG_OF_PERICENTER":37.514,"MEAN_ANOMALY":322.6065,"EPHEMERIS_TYPE":0,"CLASSIFICATION_TYPE":"U","NORAD_CAT_ID":67770,"ELEMENT_SET_NO":999,"REV_AT_EPOCH":446,"BSTAR":0.00095639287,"MEAN_MOTION_DOT":0.0003366,"MEAN_MOTION_DDOT":0},{"OBJECT_NAME":"KUIPER-00199","OBJECT_ID":"2026-030H","EPOCH":"2026-03-05T14:46:15.140928","MEAN_MOTION":15.34180162,"ECCENTRICITY":0.00103671,"INCLINATION":51.8812,"RA_OF_ASC_NODE":239.0046,"ARG_OF_PERICENTER":49.4398,"MEAN_ANOMALY":310.7488,"EPHEMERIS_TYPE":0,"CLASSIFICATION_TYPE":"U","NORAD_CAT_ID":67771,"ELEMENT_SET_NO":999,"REV_AT_EPOCH":446,"BSTAR":0.0007232765,"MEAN_MOTION_DOT":0.00024025,"MEAN_MOTION_DDOT":0},{"OBJECT_NAME":"KUIPER-00200","OBJECT_ID":"2026-030J","EPOCH":"2026-03-05T13:55:26.255136","MEAN_MOTION":15.36861856,"ECCENTRICITY":0.00012604,"INCLINATION":51.8804,"RA_OF_ASC_NODE":238.7804,"ARG_OF_PERICENTER":220.0205,"MEAN_ANOMALY":140.0689,"EPHEMERIS_TYPE":0,"CLASSIFICATION_TYPE":"U","NORAD_CAT_ID":67772,"ELEMENT_SET_NO":999,"REV_AT_EPOCH":446,"BSTAR":0.00074192595,"MEAN_MOTION_DOT":0.00026859,"MEAN_MOTION_DDOT":0},{"OBJECT_NAME":"KUIPER-00203","OBJECT_ID":"2026-030K","EPOCH":"2026-03-05T14:00:01.999872","MEAN_MOTION":15.23319871,"ECCENTRICITY":0.00111045,"INCLINATION":51.8815,"RA_OF_ASC_NODE":239.4231,"ARG_OF_PERICENTER":48.3228,"MEAN_ANOMALY":344.6183,"EPHEMERIS_TYPE":0,"CLASSIFICATION_TYPE":"U","NORAD_CAT_ID":67773,"ELEMENT_SET_NO":999,"REV_AT_EPOCH":302,"BSTAR":-0.066101248,"MEAN_MOTION_DOT":-0.01442063,"MEAN_MOTION_DDOT":0},{"OBJECT_NAME":"KUIPER-00205","OBJECT_ID":"2026-030L","EPOCH":"2026-03-05T14:08:36.314016","MEAN_MOTION":15.36205031,"ECCENTRICITY":0.00029113,"INCLINATION":51.8809,"RA_OF_ASC_NODE":238.8383,"ARG_OF_PERICENTER":10.3146,"MEAN_ANOMALY":349.79,"EPHEMERIS_TYPE":0,"CLASSIFICATION_TYPE":"U","NORAD_CAT_ID":67774,"ELEMENT_SET_NO":999,"REV_AT_EPOCH":446,"BSTAR":0.00091418383,"MEAN_MOTION_DOT":0.00032511,"MEAN_MOTION_DDOT":0},{"OBJECT_NAME":"KUIPER-00208","OBJECT_ID":"2026-030M","EPOCH":"2026-03-05T13:31:17.904288","MEAN_MOTION":15.3242278,"ECCENTRICITY":0.0014381,"INCLINATION":51.883,"RA_OF_ASC_NODE":239.4103,"ARG_OF_PERICENTER":49.3151,"MEAN_ANOMALY":310.9081,"EPHEMERIS_TYPE":0,"CLASSIFICATION_TYPE":"U","NORAD_CAT_ID":67775,"ELEMENT_SET_NO":999,"REV_AT_EPOCH":445,"BSTAR":0.00074894061,"MEAN_MOTION_DOT":0.00023567,"MEAN_MOTION_DDOT":0},{"OBJECT_NAME":"KUIPER-00209","OBJECT_ID":"2026-030N","EPOCH":"2026-03-05T15:13:12.439200","MEAN_MOTION":15.3055728,"ECCENTRICITY":0.00130849,"INCLINATION":51.8818,"RA_OF_ASC_NODE":239.1302,"ARG_OF_PERICENTER":56.1169,"MEAN_ANOMALY":304.1058,"EPHEMERIS_TYPE":0,"CLASSIFICATION_TYPE":"U","NORAD_CAT_ID":67776,"ELEMENT_SET_NO":999,"REV_AT_EPOCH":446,"BSTAR":-0.0020049527,"MEAN_MOTION_DOT":-0.00060155,"MEAN_MOTION_DDOT":0},{"OBJECT_NAME":"KUIPER-00213","OBJECT_ID":"2026-030P","EPOCH":"2026-03-05T13:32:15.569376","MEAN_MOTION":15.3257812,"ECCENTRICITY":0.00149517,"INCLINATION":51.8797,"RA_OF_ASC_NODE":239.4054,"ARG_OF_PERICENTER":52.7193,"MEAN_ANOMALY":307.5152,"EPHEMERIS_TYPE":0,"CLASSIFICATION_TYPE":"U","NORAD_CAT_ID":67777,"ELEMENT_SET_NO":999,"REV_AT_EPOCH":445,"BSTAR":0.001010628,"MEAN_MOTION_DOT":0.00032137,"MEAN_MOTION_DDOT":0},{"OBJECT_NAME":"KUIPER-00214","OBJECT_ID":"2026-030Q","EPOCH":"2026-03-05T13:59:20.212512","MEAN_MOTION":15.36550228,"ECCENTRICITY":5.123e-5,"INCLINATION":51.8838,"RA_OF_ASC_NODE":238.8031,"ARG_OF_PERICENTER":198.3007,"MEAN_ANOMALY":161.7961,"EPHEMERIS_TYPE":0,"CLASSIFICATION_TYPE":"U","NORAD_CAT_ID":67778,"ELEMENT_SET_NO":999,"REV_AT_EPOCH":446,"BSTAR":0.00057253734,"MEAN_MOTION_DOT":0.00020412,"MEAN_MOTION_DDOT":0},{"OBJECT_NAME":"KUIPER-00215","OBJECT_ID":"2026-030R","EPOCH":"2026-03-05T14:43:55.272288","MEAN_MOTION":15.3427698,"ECCENTRICITY":0.00100461,"INCLINATION":51.8843,"RA_OF_ASC_NODE":239.0029,"ARG_OF_PERICENTER":48.836,"MEAN_ANOMALY":311.3491,"EPHEMERIS_TYPE":0,"CLASSIFICATION_TYPE":"U","NORAD_CAT_ID":67779,"ELEMENT_SET_NO":999,"REV_AT_EPOCH":446,"BSTAR":0.00074019146,"MEAN_MOTION_DOT":0.00024672,"MEAN_MOTION_DDOT":0}]
